{
  "norad_id": 59963,
  "name": "STARLINK-31991",
  "history": [
    {
      "epoch": "2026-04-14T17:21:47.388096Z",
      "apogee_km": 476.0427616421448,
      "perigee_km": 474.4075494318331,
      "latitude_deg": 2.2213900964939362e-05,
      "longitude_deg": 154.79377380209593,
      "height_km": 475.9958244698431,
      "semi_major_axis_km": 6853.362155536989,
      "eccentricity": 0.0001193,
      "inclination_deg": 53.1604,
      "raan_deg": 258.137,
      "arg_perigee_deg": 81.0234,
      "mean_anomaly_deg": 279.0902,
      "mean_motion_rev_day": 15.30196622
    },
    {
      "epoch": "2026-04-15T20:00:42.290784Z",
      "apogee_km": 476.1324471516691,
      "perigee_km": 474.4752851502344,
      "latitude_deg": -5.648907611322242e-06,
      "longitude_deg": 108.8128754703625,
      "height_km": 475.9227790171527,
      "semi_major_axis_km": 6853.4408661509515,
      "eccentricity": 0.0001209,
      "inclination_deg": 53.1607,
      "raan_deg": 252.9793,
      "arg_perigee_deg": 70.2926,
      "mean_anomaly_deg": 289.8205,
      "mean_motion_rev_day": 15.30170261
    },
    {
      "epoch": "2026-04-16T19:31:29.411904Z",
      "apogee_km": 475.79379159093605,
      "perigee_km": 474.67395079058315,
      "latitude_deg": 4.657849606465925e-06,
      "longitude_deg": 110.60079875938047,
      "height_km": 476.0370232259634,
      "semi_major_axis_km": 6853.370871190759,
      "eccentricity": 8.17e-05,
      "inclination_deg": 53.1601,
      "raan_deg": 248.4292,
      "arg_perigee_deg": 80.1739,
      "mean_anomaly_deg": 279.9354,
      "mean_motion_rev_day": 15.30193703
    },
    {
      "epoch": "2026-04-17T12:46:04.490688Z",
      "apogee_km": 475.80156334430376,
      "perigee_km": 474.64718315459413,
      "latitude_deg": 2.0742492285946805e-06,
      "longitude_deg": -152.09171182475217,
      "height_km": 476.0819734230704,
      "semi_major_axis_km": 6853.361373249449,
      "eccentricity": 8.422e-05,
      "inclination_deg": 53.1601,
      "raan_deg": 245.091,
      "arg_perigee_deg": 85.9205,
      "mean_anomaly_deg": 274.1892,
      "mean_motion_rev_day": 15.30196884
    },
    {
      "epoch": "2026-04-18T15:24:58.398048Z",
      "apogee_km": 475.8449764607303,
      "perigee_km": 474.5661427391087,
      "latitude_deg": 5.5153678834716715e-05,
      "longitude_deg": 161.932007151854,
      "height_km": 476.0549552604185,
      "semi_major_axis_km": 6853.342559599919,
      "eccentricity": 9.33e-05,
      "inclination_deg": 53.1607,
      "raan_deg": 239.9337,
      "arg_perigee_deg": 85.5864,
      "mean_anomaly_deg": 274.5244,
      "mean_motion_rev_day": 15.30203185
    },
    {
      "epoch": "2026-04-19T14:55:47.382816Z",
      "apogee_km": 476.02928301519114,
      "perigee_km": 474.4913806539271,
      "latitude_deg": 2.73637990560947e-05,
      "longitude_deg": 163.71061294178577,
      "height_km": 476.0378098535792,
      "semi_major_axis_km": 6853.397331834559,
      "eccentricity": 0.0001122,
      "inclination_deg": 53.1603,
      "raan_deg": 235.3821,
      "arg_perigee_deg": 80.9584,
      "mean_anomaly_deg": 279.1544,
      "mean_motion_rev_day": 15.30184841
    },
    {
      "epoch": "2026-04-20T14:26:34.896192Z",
      "apogee_km": 476.07425305542165,
      "perigee_km": 474.38037553150116,
      "latitude_deg": 1.7458947683275615e-05,
      "longitude_deg": 165.49937862059488,
      "height_km": 475.9137036510358,
      "semi_major_axis_km": 6853.364314293462,
      "eccentricity": 0.00012358,
      "inclination_deg": 53.1608,
      "raan_deg": 230.8345,
      "arg_perigee_deg": 75.5129,
      "mean_anomaly_deg": 284.6009,
      "mean_motion_rev_day": 15.30195899
    },
    {
      "epoch": "2026-04-21T13:57:22.719744Z",
      "apogee_km": 476.15205129213973,
      "perigee_km": 474.3441283054508,
      "latitude_deg": 2.1611073840628074e-05,
      "longitude_deg": 167.28235823794293,
      "height_km": 475.9966377749401,
      "semi_major_axis_km": 6853.385089798795,
      "eccentricity": 0.0001319,
      "inclination_deg": 53.159,
      "raan_deg": 226.2824,
      "arg_perigee_deg": 80.4887,
      "mean_anomaly_deg": 279.6263,
      "mean_motion_rev_day": 15.30188941
    },
    {
      "epoch": "2026-04-22T13:28:11.019360Z",
      "apogee_km": 476.1620088954278,
      "perigee_km": 474.34174880920364,
      "latitude_deg": -1.303471659582527e-05,
      "longitude_deg": 169.0640198601046,
      "height_km": 476.23948677281743,
      "semi_major_axis_km": 6853.388878852315,
      "eccentricity": 0.0001328,
      "inclination_deg": 53.159,
      "raan_deg": 221.731,
      "arg_perigee_deg": 95.6571,
      "mean_anomaly_deg": 264.4581,
      "mean_motion_rev_day": 15.30187672
    }
  ]
}